IRIDIUM 116             
1 43072U 17083C   25201.46568453 -.00000015  00000+0 -12457-4 0  9996
2 43072  86.3955 100.7016 0001828  88.4278 271.7127 14.34217334396620
IRIDIUM 130             
1 43073U 17083D   25201.64327684  .00000004  00000+0 -57190-5 0  9997
2 43073  86.3964 100.8705 0001662  83.2164 276.9221 14.34217446396592
IRIDIUM 151             
1 43074U 17083E   25201.47836963  .00000010  00000+0 -34842-5 0  9990
2 43074  86.3958 100.7467 0001899  89.8638 270.2776 14.34217650396599
IRIDIUM 134             
1 43075U 17083F   25201.65596212  .00000015  00000+0 -18483-5 0  9999
2 43075  86.3959 100.6760 0001768  82.5210 277.6187 14.34217516396584
IRIDIUM 137             
1 43076U 17083G   25201.45934195 -.00000011  00000+0 -10901-4 0  9997
2 43076  86.3961 100.8441 0002030 102.6673 257.4750 14.34217457396627
IRIDIUM 141             
1 43077U 17083H   25201.45300034  .00000201  00000+0  64846-4 0  9993
2 43077  86.3958 100.6966 0002353  82.0225 278.1238 14.34218771396627
IRIDIUM 153             
1 43078U 17083J   25201.89355830  .00000003  00000+0 -61002-5 0  9999
2 43078  86.3930  68.9705 0002281  75.9052 284.2397 14.34217465397796
IRIDIUM 131             
1 43079U 17083K   25201.64962066  .00000017  00000+0 -10512-5 0  9993
2 43079  86.3963 100.7783 0002359  85.9481 274.1984 14.34217642396580
